start=new Date('2022-05-31T00:00:00.000Z').valueOf();
sats=[{"PERIAPSIS":"538.430","TLE_LINE1":"1 51715U 22016B   22150.91667824 -.00015136  00000-0 -93470-3 0  9997","SITE":"AFETR","CLASSIFICATION_TYPE":"U","INCLINATION":"53.2204","COUNTRY_CODE":"US","TIME_SYSTEM":"UTC","APOAPSIS":"541.022","LAUNCH_DATE":"2022-02-21","OBJECT_TYPE":"PAYLOAD","MEAN_ANOMALY":"139.8845","ELEMENT_SET_NO":"999","RCS_SIZE":"LARGE","EPHEMERIS_TYPE":"0","NORAD_CAT_ID":"51715","RA_OF_ASC_NODE":"38.6719","ECCENTRICITY":"0.00018730","MEAN_MOTION_DDOT":"0.0000000000000","MEAN_ELEMENT_THEORY":"SGP4","PERIOD":"95.437","EPOCH":"2022-05-30T22:00:00.999936","ARG_OF_PERICENTER":"45.8861","SEMIMAJOR_AXIS":"6917.861","MEAN_MOTION":"15.08846303","FILE":"3472994","CENTER_NAME":"EARTH","REF_FRAME":"TEME","GP_ID":"204979880","DECAY_DATE":null,"REV_AT_EPOCH":"130","MEAN_MOTION_DOT":"-0.00015136","BSTAR":"-0.00093470000000","TLE_LINE2":"2 51715  53.2204  38.6719 0001873  45.8861 139.8845 15.08846303  1302","OBJECT_ID":"2022-016B","OBJECT_NAME":"STARLINK-3533"},{"SITE":"AFETR","CLASSIFICATION_TYPE":"U","PERIAPSIS":"538.275","TLE_LINE1":"1 51716U 22016C   22150.91667824 -.00016283  00000-0 -10075-2 0  9991","EPHEMERIS_TYPE":"0","RCS_SIZE":"LARGE","OBJECT_TYPE":"PAYLOAD","LAUNCH_DATE":"2022-02-21","ELEMENT_SET_NO":"999","MEAN_ANOMALY":"96.6380","COUNTRY_CODE":"US","INCLINATION":"53.2197","APOAPSIS":"541.268","TIME_SYSTEM":"UTC","MEAN_ELEMENT_THEORY":"SGP4","MEAN_MOTION_DDOT":"0.0000000000000","ECCENTRICITY":"0.00021630","NORAD_CAT_ID":"51716","RA_OF_ASC_NODE":"38.6749","PERIOD":"95.438","EPOCH":"2022-05-30T22:00:00.999936","MEAN_MOTION":"15.08831346","SEMIMAJOR_AXIS":"6917.907","ARG_OF_PERICENTER":"49.1152","CENTER_NAME":"EARTH","FILE":"3472994","MEAN_MOTION_DOT":"-0.00016283","DECAY_DATE":null,"REV_AT_EPOCH":"130","REF_FRAME":"TEME","GP_ID":"204980130","OBJECT_NAME":"STARLINK-3543","OBJECT_ID":"2022-016C","TLE_LINE2":"2 51716  53.2197  38.6749 0002163  49.1152  96.6380 15.08831346  1305","BSTAR":"-0.00100750000000"},{"RA_OF_ASC_NODE":"38.6728","NORAD_CAT_ID":"51717","ECCENTRICITY":"0.00019250","MEAN_ELEMENT_THEORY":"SGP4","MEAN_MOTION_DDOT":"0.0000000000000","EPOCH":"2022-05-30T22:00:00.999936","PERIOD":"95.438","TLE_LINE1":"1 51717U 22016D   22150.91667824 -.00014697  00000-0 -90731-3 0  9997","PERIAPSIS":"538.427","SITE":"AFETR","CLASSIFICATION_TYPE":"U","TIME_SYSTEM":"UTC","APOAPSIS":"541.091","INCLINATION":"53.2194","COUNTRY_CODE":"US","MEAN_ANOMALY":"109.5132","ELEMENT_SET_NO":"999","OBJECT_TYPE":"PAYLOAD","LAUNCH_DATE":"2022-02-21","RCS_SIZE":"LARGE","EPHEMERIS_TYPE":"0","REF_FRAME":"TEME","GP_ID":"204979382","REV_AT_EPOCH":"130","DECAY_DATE":null,"MEAN_MOTION_DOT":"-0.00014697","BSTAR":"-0.00090731000000","TLE_LINE2":"2 51717  53.2194  38.6728 0001925  56.2540 109.5132 15.08835536  1309","OBJECT_ID":"2022-016D","OBJECT_NAME":"STARLINK-3445","ARG_OF_PERICENTER":"56.2540","SEMIMAJOR_AXIS":"6917.894","MEAN_MOTION":"15.08835536","FILE":"3472994","CENTER_NAME":"EARTH"},{"CENTER_NAME":"EARTH","FILE":"3472910","SEMIMAJOR_AXIS":"6917.894","MEAN_MOTION":"15.08835408","ARG_OF_PERICENTER":"54.0735","OBJECT_ID":"2022-016E","OBJECT_NAME":"STARLINK-3546","BSTAR":"-0.00079272000000","TLE_LINE2":"2 51718  53.2148  38.6704 0001869  54.0735 191.7247 15.08835408 16339","REV_AT_EPOCH":"1633","DECAY_DATE":null,"MEAN_MOTION_DOT":"-0.00012881","GP_ID":"204954230","REF_FRAME":"TEME","RCS_SIZE":"LARGE","EPHEMERIS_TYPE":"0","TIME_SYSTEM":"UTC","APOAPSIS":"541.052","COUNTRY_CODE":"US","INCLINATION":"53.2148","MEAN_ANOMALY":"191.7247","ELEMENT_SET_NO":"999","LAUNCH_DATE":"2022-02-21","OBJECT_TYPE":"PAYLOAD","TLE_LINE1":"1 51718U 22016E   22150.91667824 -.00012881  00000-0 -79272-3 0  9998","PERIAPSIS":"538.466","CLASSIFICATION_TYPE":"U","SITE":"AFETR","EPOCH":"2022-05-30T22:00:00.999936","PERIOD":"95.438","MEAN_ELEMENT_THEORY":"SGP4","MEAN_MOTION_DDOT":"0.0000000000000","RA_OF_ASC_NODE":"38.6704","NORAD_CAT_ID":"51718","ECCENTRICITY":"0.00018690"},{"REV_AT_EPOCH":"130","DECAY_DATE":null,"MEAN_MOTION_DOT":"-0.00012900","GP_ID":"204980380","REF_FRAME":"TEME","OBJECT_ID":"2022-016F","OBJECT_NAME":"STARLINK-3540","BSTAR":"-0.00079365000000","TLE_LINE2":"2 51719  53.2200  38.6693 0001825  58.8773 146.9277 15.08847461  1300","SEMIMAJOR_AXIS":"6917.858","MEAN_MOTION":"15.08847461","ARG_OF_PERICENTER":"58.8773","CENTER_NAME":"EARTH","FILE":"3472994","MEAN_MOTION_DDOT":"0.0000000000000","MEAN_ELEMENT_THEORY":"SGP4","RA_OF_ASC_NODE":"38.6693","NORAD_CAT_ID":"51719","ECCENTRICITY":"0.00018250","EPOCH":"2022-05-30T22:00:00.999936","PERIOD":"95.437","TLE_LINE1":"1 51719U 22016F   22150.91667824 -.00012900  00000-0 -79365-3 0  9994","PERIAPSIS":"538.460","SITE":"AFETR","CLASSIFICATION_TYPE":"U","RCS_SIZE":"LARGE","EPHEMERIS_TYPE":"0","TIME_SYSTEM":"UTC","APOAPSIS":"540.985","COUNTRY_CODE":"US","INCLINATION":"53.2200","MEAN_ANOMALY":"146.9277","ELEMENT_SET_NO":"999","LAUNCH_DATE":"2022-02-21","OBJECT_TYPE":"PAYLOAD"},{"REF_FRAME":"TEME","GP_ID":"204980630","REV_AT_EPOCH":"130","DECAY_DATE":null,"MEAN_MOTION_DOT":"-0.00014168","TLE_LINE2":"2 51720  53.2160  38.6738 0001884  49.2781 216.4750 15.08830464  1309","BSTAR":"-0.00087403000000","OBJECT_ID":"2022-016G","OBJECT_NAME":"STARLINK-3526","ARG_OF_PERICENTER":"49.2781","SEMIMAJOR_AXIS":"6917.910","MEAN_MOTION":"15.08830464","FILE":"3472994","CENTER_NAME":"EARTH","RA_OF_ASC_NODE":"38.6738","NORAD_CAT_ID":"51720","ECCENTRICITY":"0.00018840","MEAN_ELEMENT_THEORY":"SGP4","MEAN_MOTION_DDOT":"0.0000000000000","EPOCH":"2022-05-30T22:00:00.999936","PERIOD":"95.438","TLE_LINE1":"1 51720U 22016G   22150.91667824 -.00014168  00000-0 -87403-3 0  9996","PERIAPSIS":"538.471","CLASSIFICATION_TYPE":"U","SITE":"AFETR","TIME_SYSTEM":"UTC","APOAPSIS":"541.078","INCLINATION":"53.2160","COUNTRY_CODE":"US","MEAN_ANOMALY":"216.4750","ELEMENT_SET_NO":"999","LAUNCH_DATE":"2022-02-21","OBJECT_TYPE":"PAYLOAD","RCS_SIZE":"LARGE","EPHEMERIS_TYPE":"0"},{"REV_AT_EPOCH":"1528","DECAY_DATE":null,"MEAN_MOTION_DOT":"-0.00001424","GP_ID":"204978883","REF_FRAME":"TEME","OBJECT_ID":"2022-016H","OBJECT_NAME":"STARLINK-3524","TLE_LINE2":"2 51721  53.2210  38.5533 0001817  55.3028 304.8135 15.08838741 15283","BSTAR":"-0.00007141300000","SEMIMAJOR_AXIS":"6917.884","MEAN_MOTION":"15.08838741","ARG_OF_PERICENTER":"55.3028","CENTER_NAME":"EARTH","FILE":"3472994","MEAN_MOTION_DDOT":"0.0000000000000","MEAN_ELEMENT_THEORY":"SGP4","RA_OF_ASC_NODE":"38.5533","NORAD_CAT_ID":"51721","ECCENTRICITY":"0.00018170","EPOCH":"2022-05-30T22:35:36.548736","PERIOD":"95.438","TLE_LINE1":"1 51721U 22016H   22150.94139524 -.00001424  00000-0 -71413-4 0  9997","PERIAPSIS":"538.492","SITE":"AFETR","CLASSIFICATION_TYPE":"U","RCS_SIZE":"LARGE","EPHEMERIS_TYPE":"0","APOAPSIS":"541.006","TIME_SYSTEM":"UTC","INCLINATION":"53.2210","COUNTRY_CODE":"US","ELEMENT_SET_NO":"999","MEAN_ANOMALY":"304.8135","OBJECT_TYPE":"PAYLOAD","LAUNCH_DATE":"2022-02-21"},{"FILE":"3472994","CENTER_NAME":"EARTH","ARG_OF_PERICENTER":"59.5923","MEAN_MOTION":"15.08836287","SEMIMAJOR_AXIS":"6917.892","BSTAR":"-0.00092007000000","TLE_LINE2":"2 51722  53.2156  38.6699 0001974  59.5923 246.1342 15.08836287  1300","OBJECT_NAME":"STARLINK-3535","OBJECT_ID":"2022-016J","GP_ID":"204979632","REF_FRAME":"TEME","MEAN_MOTION_DOT":"-0.00014900","DECAY_DATE":null,"REV_AT_EPOCH":"130","LAUNCH_DATE":"2022-02-21","OBJECT_TYPE":"PAYLOAD","ELEMENT_SET_NO":"999","MEAN_ANOMALY":"246.1342","COUNTRY_CODE":"US","INCLINATION":"53.2156","APOAPSIS":"541.122","TIME_SYSTEM":"UTC","EPHEMERIS_TYPE":"0","RCS_SIZE":"LARGE","SITE":"AFETR","CLASSIFICATION_TYPE":"U","PERIAPSIS":"538.391","TLE_LINE1":"1 51722U 22016J   22150.91667824 -.00014900  00000-0 -92007-3 0  9998","PERIOD":"95.438","EPOCH":"2022-05-30T22:00:00.999936","ECCENTRICITY":"0.00019740","NORAD_CAT_ID":"51722","RA_OF_ASC_NODE":"38.6699","MEAN_MOTION_DDOT":"0.0000000000000","MEAN_ELEMENT_THEORY":"SGP4"},{"SEMIMAJOR_AXIS":"6719.494","MEAN_MOTION":"15.76151296","ARG_OF_PERICENTER":"278.9374","CENTER_NAME":"EARTH","FILE":"3472994","DECAY_DATE":null,"REV_AT_EPOCH":"1565","MEAN_MOTION_DOT":"0.00004799","REF_FRAME":"TEME","GP_ID":"204979881","OBJECT_ID":"2022-016K","OBJECT_NAME":"STARLINK-3531","TLE_LINE2":"2 51723  53.2230  11.2645 0008533 278.9374  81.0681 15.76151296 15657","BSTAR":"0.00003413600000","PERIAPSIS":"335.625","TLE_LINE1":"1 51723U 22016K   22150.85849146  .00004799  00000-0  34136-4 0  9994","CLASSIFICATION_TYPE":"U","SITE":"AFETR","RCS_SIZE":"LARGE","EPHEMERIS_TYPE":"0","INCLINATION":"53.2230","COUNTRY_CODE":"US","TIME_SYSTEM":"UTC","APOAPSIS":"347.093","LAUNCH_DATE":"2022-02-21","OBJECT_TYPE":"PAYLOAD","MEAN_ANOMALY":"81.0681","ELEMENT_SET_NO":"999","MEAN_MOTION_DDOT":"0.0000000000000","MEAN_ELEMENT_THEORY":"SGP4","NORAD_CAT_ID":"51723","RA_OF_ASC_NODE":"11.2645","ECCENTRICITY":"0.00085330","PERIOD":"91.362","EPOCH":"2022-05-30T20:36:13.662144"},{"TLE_LINE1":"1 51724U 22016L   22150.91667824 -.00015794  00000-0 -97623-3 0  9991","PERIAPSIS":"538.597","SITE":"AFETR","CLASSIFICATION_TYPE":"U","RCS_SIZE":"LARGE","EPHEMERIS_TYPE":"0","TIME_SYSTEM":"UTC","APOAPSIS":"540.858","INCLINATION":"53.2162","COUNTRY_CODE":"US","MEAN_ANOMALY":"284.1318","ELEMENT_SET_NO":"999","OBJECT_TYPE":"PAYLOAD","LAUNCH_DATE":"2022-02-21","MEAN_MOTION_DDOT":"0.0000000000000","MEAN_ELEMENT_THEORY":"SGP4","RA_OF_ASC_NODE":"38.6703","NORAD_CAT_ID":"51724","ECCENTRICITY":"0.00016340","EPOCH":"2022-05-30T22:00:00.999936","PERIOD":"95.437","SEMIMAJOR_AXIS":"6917.862","MEAN_MOTION":"15.08845900","ARG_OF_PERICENTER":"61.6842","CENTER_NAME":"EARTH","FILE":"3472994","REV_AT_EPOCH":"130","DECAY_DATE":null,"MEAN_MOTION_DOT":"-0.00015794","GP_ID":"204980131","REF_FRAME":"TEME","OBJECT_ID":"2022-016L","OBJECT_NAME":"STARLINK-3529","TLE_LINE2":"2 51724  53.2162  38.6703 0001634  61.6842 284.1318 15.08845900  1309","BSTAR":"-0.00097623000000"}];
